LINK                    
1 42714U 98067LV  17288.52053256  .00031711  00000-0  37919-3 0  9997
2 42714  51.6370 155.2686 0000453  18.4940 341.6070 15.60700008 23376
CSUNSAT 1               
1 42715U 98067LW  17288.50997701  .00021733  00000-0  27939-3 0  9992
2 42715  51.6389 155.9524 0002934 342.2576  17.8314 15.59014000 23252
UPSAT                   
1 42716U 98067LX  17288.50661895  .00029918  00000-0  36035-3 0  9995
2 42716  51.6384 155.1832 0004004  77.8876 282.2566 15.60536107 23397
SPACECUBE               
1 42717U 98067LY  17288.47708852  .00023460  00000-0  29419-3 0  9991
2 42717  51.6381 155.7349 0004122  74.9328 285.2121 15.59618606 22623
HOOPOE                  
1 42718U 98067LZ  17288.52369892  .00025612  00000-0  31494-3 0  9992
2 42718  51.6379 155.2964 0004027  75.2013 284.9426 15.60081514 22637
CHALLENGER              
1 42721U 98067MA  17288.11913473  .00047343  00000-0  54739-3 0  9993
2 42721  51.6371 157.0855 0005552  47.8859 312.2606 15.61371902 22278
NJUST-1                 
1 42722U 98067MB  17288.47014014  .00019571  00000-0  25618-3 0  9992
2 42722  51.6387 156.4362 0006587  45.7342 314.4190 15.58592569 22312
UNSW-ECO                
1 42723U 98067MC  17288.17082388  .00035790  00000-0  43981-3 0  9993
2 42723  51.6387 157.4397 0005971  46.6955 313.4536 15.59905925 22259
DUTHSAT                 
1 42724U 98067MD  17288.13367864  .00043416  00000-0  50818-3 0  9996
2 42724  51.6380 157.1897 0004899  53.7163 306.4283 15.61095313 22179
LILACSAT-1              
1 42725U 98067ME  17288.46496909  .00022437  00000-0  28838-3 0  9993
2 42725  51.6386 156.4044 0005501  51.6660 308.4826 15.58988459 22210
NSIGHT-1                
1 42726U 98067MF  17288.07534494  .00013644  00000-0  19066-3 0  9996
2 42726  51.6397 159.0549 0006324  47.9135 312.2394 15.57151018 22159
SNUSAT-1                
1 42727U 98067MG  17288.20603989  .00020801  00000-0  26843-3 0  9992
2 42727  51.6372 157.6641 0006273   4.2612 355.8432 15.58929648 22147
QBITO                   
1 42728U 98067MH  17288.11887757  .00030925  00000-0  38782-3 0  9993
2 42728  51.6397 157.8517 0003240  68.3159 291.8179 15.59458812 21975
AALTO-2                 
1 42729U 98067MJ  17288.18277790  .00031013  00000-0  38855-3 0  9991
2 42729  51.6386 157.5216 0003169  69.0448 291.0884 15.59482678 21990
SUSAT                   
1 42730U 98067MK  17288.19158876  .00025062  00000-0  31833-3 0  9993
2 42730  51.6385 157.5773 0003216  64.1528 295.9797 15.59241290 21985
I-INSPIRE II            
1 42731U 98067ML  17288.16225936  .00033232  00000-0  40517-3 0  9990
2 42731  51.6374 157.3696 0005052 346.7104  13.3755 15.60155812 22034
POLYITAN-2-SAU          
1 42732U 98067MM  17288.49800244  .00025835  00000-0  32306-3 0  9995
2 42732  51.6378 155.8631 0005356 347.3957  12.6901 15.59626950 22085
SNUSAT-1B               
1 42733U 98067MN  17288.06321232  .00029745  00000-0  37610-3 0  9991
2 42733  51.6384 158.2123 0005468 349.2239  10.8636 15.59252500 22018
EXALTA-1                
1 42734U 98067MP  17288.16487185  .00033621  00000-0  41193-3 0  9992
2 42734  51.6377 157.3893 0006840  16.3119 343.8093 15.60009561 21989
AOXIANG-1               
1 42735U 98067MQ  17288.52979153  .00020057  00000-0  26136-3 0  9993
2 42735  51.6379 156.0823 0007111  41.9012 318.2524 15.58691179 23457
BEEAGLESAT              
1 42736U 98067MR  17288.07395414  .00027923  00000-0  35744-3 0  9990
2 42736  51.6375 158.2880 0006860  39.3225 320.8264 15.58952638 22075
ATLANTIS                
1 42737U 98067MS  17287.77707736  .00071305  00000-0  73105-3 0  9997
2 42737  51.6356 157.7918 0004315  43.5828 316.5507 15.64289184 21943
PROGRESS-MS 06          
1 42756U 17033A   17287.52063924  .00003724  00000-0  63384-4 0  9998
2 42756  51.6417 163.4351 0004653  23.0640  49.2344 15.54169948 80316
ISS DEB (ROSA)          
1 42813U 98067MT  17288.16820214  .00114878  00000-0  11850-2 0  9994
2 42813  51.6367 157.4123 0000219 330.6121  29.4861 15.63933099 17386
SOYUZ-MS 05             
1 42898U 17043A   17287.52063924  .00003724  00000-0  63384-4 0  9996
2 42898  51.6417 163.4351 0004653  23.0640  49.2344 15.54169948 80313
SOYUZ-MS 06             
1 42937U 17054A   17287.52063924  .00003724  00000-0  63384-4 0  9992
2 42937  51.6417 163.4351 0004653  23.0640  49.2344 15.54169948 80317
PROGRESS-MS 07          
1 42971U 17065A   17288.62556946 -.00842031  00000-0 -41379-2 0  9997
2 42971  51.6417 158.1088 0022555 221.9602 194.8834 15.82956788   209
